[
    {
        "Altitude(m)": 607897.6059711915,
        "Argument of Periapsis(deg)": 0.0,
        "Eccentricity": 0.0,
        "Inclination(deg)": 60.0,
        "Latitude(deg)": -14.292885670400238,
        "Longitude(deg)": 81.61876446668836,
        "Mean Anomaly(deg)": -16.363600000000012,
        "RAAN(deg)": 190.0,
        "Satellite Name": "Test1 857",
        "Satellite Number": 857,
        "Semi-Major Axis(m)": 6980739.136638005,
        "Time(s)": 0
    },
    {
        "Altitude(m)": 607750.8075232803,
        "Argument of Periapsis(deg)": 0.00010418945913296404,
        "Eccentricity": 0.0,
        "Inclination(deg)": 60.0,
        "Latitude(deg)": -13.758726882482476,
        "Longitude(deg)": 81.90583297027247,
        "Mean Anomaly(deg)": -15.743493854538157,
        "RAAN(deg)": 189.99957995086027,
        "Satellite Name": "Test1 857",
        "Satellite Number": 857,
        "Semi-Major Axis(m)": 6980739.136638005,
        "Time(s)": 10
    },
    {
        "Altitude(m)": 607606.5333654131,
        "Argument of Periapsis(deg)": 0.0002083789182659281,
        "Eccentricity": 0.0,
        "Inclination(deg)": 60.0,
        "Latitude(deg)": -13.224093349726232,
        "Longitude(deg)": 82.19142508017588,
        "Mean Anomaly(deg)": -15.12338770907633,
        "RAAN(deg)": 189.99915990172053,
        "Satellite Name": "Test1 857",
        "Satellite Number": 857,
        "Semi-Major Axis(m)": 6980739.136638005,
        "Time(s)": 20
    },
    {
        "Altitude(m)": 607464.8278696027,
        "Argument of Periapsis(deg)": 0.00031256837739889213,
        "Eccentricity": 0.0,
        "Inclination(deg)": 60.0,
        "Latitude(deg)": -12.689005376590229,
        "Longitude(deg)": 82.47560547563775,
        "Mean Anomaly(deg)": -14.503281563614477,
        "RAAN(deg)": 189.9987398525808,
        "Satellite Name": "Test1 857",
        "Satellite Number": 857,
        "Semi-Major Axis(m)": 6980739.136638005,
        "Time(s)": 30
    },
    {
        "Altitude(m)": 607325.7341307712,
        "Argument of Periapsis(deg)": 0.0004167578365318562,
        "Eccentricity": 0.0,
        "Inclination(deg)": 60.0,
        "Latitude(deg)": -12.153482994988847,
        "Longitude(deg)": 82.75843849324869,
        "Mean Anomaly(deg)": -13.883175418152751,
        "RAAN(deg)": 189.99831980344103,
        "Satellite Name": "Test1 857",
        "Satellite Number": 857,
        "Semi-Major Axis(m)": 6980739.136638005,
        "Time(s)": 40
    },
    {
        "Altitude(m)": 607189.2939484299,
        "Argument of Periapsis(deg)": 0.0005209472956648203,
        "Eccentricity": 0.0,
        "Inclination(deg)": 60.0,
        "Latitude(deg)": -11.617545978233414,
        "Longitude(deg)": 83.03998715848493,
        "Mean Anomaly(deg)": -13.263069272690899,
        "RAAN(deg)": 189.9978997543013,
        "Satellite Name": "Test1 857",
        "Satellite Number": 857,
        "Semi-Major Axis(m)": 6980739.136638005,
        "Time(s)": 50
    },
    {
        "Altitude(m)": 607055.5478089969,
        "Argument of Periapsis(deg)": 0.0006251367547977843,
        "Eccentricity": 0.0,
        "Inclination(deg)": 60.0,
        "Latitude(deg)": -11.08121385461865,
        "Longitude(deg)": 83.32031372943838,
        "Mean Anomaly(deg)": -12.642963127229072,
        "RAAN(deg)": 189.99747970516157,
        "Satellite Name": "Test1 857",
        "Satellite Number": 857,
        "Semi-Major Axis(m)": 6980739.136638005,
        "Time(s)": 60
    },
    {
        "Altitude(m)": 606924.5348687335,
        "Argument of Periapsis(deg)": 0.0007293262139307483,
        "Eccentricity": 0.0,
        "Inclination(deg)": 60.0,
        "Latitude(deg)": -10.544505920671373,
        "Longitude(deg)": 83.59948023989972,
        "Mean Anomaly(deg)": -12.02285698176722,
        "RAAN(deg)": 189.99705965602183,
        "Satellite Name": "Test1 857",
        "Satellite Number": 857,
        "Semi-Major Axis(m)": 6980739.136638005,
        "Time(s)": 70
    },
    {
        "Altitude(m)": 606796.2929373601,
        "Argument of Periapsis(deg)": 0.0008335156730637124,
        "Eccentricity": 0.0,
        "Inclination(deg)": 60.0,
        "Latitude(deg)": -10.007441254082593,
        "Longitude(deg)": 83.87754752895002,
        "Mean Anomaly(deg)": -11.402750836305392,
        "RAAN(deg)": 189.99663960688207,
        "Satellite Name": "Test1 857",
        "Satellite Number": 857,
        "Semi-Major Axis(m)": 6980739.136638005,
        "Time(s)": 80
    },
    {
        "Altitude(m)": 606670.8584622571,
        "Argument of Periapsis(deg)": 0.0009377051321966765,
        "Eccentricity": 0.0,
        "Inclination(deg)": 60.0,
        "Latitude(deg)": -9.470038726338279,
        "Longitude(deg)": 84.15457578283511,
        "Mean Anomaly(deg)": -10.782644690843538,
        "RAAN(deg)": 189.99621955774234,
        "Satellite Name": "Test1 857",
        "Satellite Number": 857,
        "Semi-Major Axis(m)": 6980739.136638005,
        "Time(s)": 90
    },
    {
        "Altitude(m)": 606548.2665134374,
        "Argument of Periapsis(deg)": 0.0010418945913296407,
        "Eccentricity": 0.0,
        "Inclination(deg)": 60.0,
        "Latitude(deg)": -8.932317015067715,
        "Longitude(deg)": 84.4306250762803,
        "Mean Anomaly(deg)": -10.16253854538171,
        "RAAN(deg)": 189.99579950860257,
        "Satellite Name": "Test1 857",
        "Satellite Number": 857,
        "Semi-Major Axis(m)": 6980739.136638005,
        "Time(s)": 100
    },
    {
        "Altitude(m)": 606428.5507690754,
        "Argument of Periapsis(deg)": 0.0011460840504626045,
        "Eccentricity": 0.0,
        "Inclination(deg)": 60.0,
        "Latitude(deg)": -8.394294616126666,
        "Longitude(deg)": 84.7057544004002,
        "Mean Anomaly(deg)": -9.542432399919958,
        "RAAN(deg)": 189.9953794594628,
        "Satellite Name": "Test1 857",
        "Satellite Number": 857,
        "Semi-Major Axis(m)": 6980739.136638005,
        "Time(s)": 110
    },
    {
        "Altitude(m)": 606311.7435018244,
        "Argument of Periapsis(deg)": 0.0012502735095955685,
        "Eccentricity": 0.0,
        "Inclination(deg)": 60.0,
        "Latitude(deg)": -7.855989855430533,
        "Longitude(deg)": 84.98002220298048,
        "Mean Anomaly(deg)": -8.922326254458028,
        "RAAN(deg)": 189.9949594103231,
        "Satellite Name": "Test1 857",
        "Satellite Number": 857,
        "Semi-Major Axis(m)": 6980739.136638005,
        "Time(s)": 120
    },
    {
        "Altitude(m)": 606197.8755657243,
        "Argument of Periapsis(deg)": 0.0013544629687285324,
        "Eccentricity": 0.0,
        "Inclination(deg)": 60.0,
        "Latitude(deg)": -7.317420900555925,
        "Longitude(deg)": 85.2534869282858,
        "Mean Anomaly(deg)": -8.302220108996279,
        "RAAN(deg)": 189.99453936118337,
        "Satellite Name": "Test1 857",
        "Satellite Number": 857,
        "Semi-Major Axis(m)": 6980739.136638005,
        "Time(s)": 130
    },
    {
        "Altitude(m)": 606086.9763838699,
        "Argument of Periapsis(deg)": 0.0014586524278614966,
        "Eccentricity": 0.0,
        "Inclination(deg)": 60.0,
        "Latitude(deg)": -6.77860577212407,
        "Longitude(deg)": 85.52620604355364,
        "Mean Anomaly(deg)": -7.682113963534451,
        "RAAN(deg)": 189.9941193120436,
        "Satellite Name": "Test1 857",
        "Satellite Number": 857,
        "Semi-Major Axis(m)": 6980739.136638005,
        "Time(s)": 140
    },
    {
        "Altitude(m)": 605979.0739367619,
        "Argument of Periapsis(deg)": 0.0015628418869944607,
        "Eccentricity": 0.0,
        "Inclination(deg)": 60.0,
        "Latitude(deg)": -6.239562354984166,
        "Longitude(deg)": 85.79823657794527,
        "Mean Anomaly(deg)": -7.062007818072598,
        "RAAN(deg)": 189.99369926290385,
        "Satellite Name": "Test1 857",
        "Satellite Number": 857,
        "Semi-Major Axis(m)": 6980739.136638005,
        "Time(s)": 150
    },
    {
        "Altitude(m)": 605874.1947513544,
        "Argument of Periapsis(deg)": 0.0016670313461274247,
        "Eccentricity": 0.0,
        "Inclination(deg)": 60.0,
        "Latitude(deg)": -5.700308409209762,
        "Longitude(deg)": 86.06963566111365,
        "Mean Anomaly(deg)": -6.441901672610769,
        "RAAN(deg)": 189.99327921376414,
        "Satellite Name": "Test1 857",
        "Satellite Number": 857,
        "Semi-Major Axis(m)": 6980739.136638005,
        "Time(s)": 160
    },
    {
        "Altitude(m)": 605772.3638908202,
        "Argument of Periapsis(deg)": 0.0017712208052603888,
        "Eccentricity": 0.0,
        "Inclination(deg)": 60.0,
        "Latitude(deg)": -5.16086158092478,
        "Longitude(deg)": 86.34045954854224,
        "Mean Anomaly(deg)": -5.821795527148917,
        "RAAN(deg)": 189.9928591646244,
        "Satellite Name": "Test1 857",
        "Satellite Number": 857,
        "Semi-Major Axis(m)": 6980739.136638005,
        "Time(s)": 170
    },
    {
        "Altitude(m)": 605673.6049450571,
        "Argument of Periapsis(deg)": 0.001875410264393353,
        "Eccentricity": 0.0,
        "Inclination(deg)": 60.0,
        "Latitude(deg)": -4.621239412973028,
        "Longitude(deg)": 86.61076415943123,
        "Mean Anomaly(deg)": -5.201689381687089,
        "RAAN(deg)": 189.99243911548464,
        "Satellite Name": "Test1 857",
        "Satellite Number": 857,
        "Semi-Major Axis(m)": 6980739.136638005,
        "Time(s)": 180
    },
    {
        "Altitude(m)": 605577.9400218795,
        "Argument of Periapsis(deg)": 0.0019795997235263173,
        "Eccentricity": 0.0,
        "Inclination(deg)": 60.0,
        "Latitude(deg)": -4.081459355445589,
        "Longitude(deg)": 86.88060561428692,
        "Mean Anomaly(deg)": -4.581583236225236,
        "RAAN(deg)": 189.99201906634488,
        "Satellite Name": "Test1 857",
        "Satellite Number": 857,
        "Semi-Major Axis(m)": 6980739.136638005,
        "Time(s)": 190
    }
]